#aV2012 12  9  0  0  0.00000000     288 DD+AD WGS84 FIT  NGA
## 1718      0.00000000   300.00000000 56270 0.0000000000000
+   31     1  2  3  4  5  6  7  8  9 10 11 12 13 14 15 16 17
+         18 19 20 21 22 23 24 25 26 28 29 30 31 32  0  0  0
+          0  0  0  0  0  0  0  0  0  0  0  0  0  0  0  0  0
+          0  0  0  0  0  0  0  0  0  0  0  0  0  0  0  0  0
+          0  0  0  0  0  0  0  0  0  0  0  0  0  0  0  0  0
++         2  2  2  2  2  2  2  2  2  2  2  2  2  2  2  2  2
++         2  2  2  2  2  2  2  2  2  2  2  2  2  2  2  0  0
++         0  0  0  0  0  0  0  0  0  0  0  0  0  0  0  0  0
++         0  0  0  0  0  0  0  0  0  0  0  0  0  0  0  0  0
++         0  0  0  0  0  0  0  0  0  0  0  0  0  0  0  0  0
%c cc cc ccc ccc cccc cccc cccc cccc ccccc ccccc ccccc ccccc
%c cc cc ccc ccc cccc cccc cccc cccc ccccc ccccc ccccc ccccc
%f  0.0000000  0.000000000  0.00000000000  0.000000000000000
%f  0.0000000  0.000000000  0.00000000000  0.000000000000000
%i    0    0    0    0      0      0      0      0         0
%i    0    0    0    0      0      0      0      0         0
/*      NGA, ST. LOUIS,MO.                                  
/*   EPHEMERIS COMPUTED FROM  1 DAYS OF DATA
/*   EPOCHA SMOOTHER  
/* CCCCCCCCCCCCCCCCCCCCCCCCCCCCCCCCCCCCCCCCCCCCCCCCCCCCCCCCC
*  2012 12  9  7 35  0.00000000                                                 
P  1   4344.519906 -17345.559490 -19643.541215    286.552364                    
V  1  23008.149207  -9639.555354  13677.228645      0.020121                    
P  2 -21337.872560  14632.498608   4786.182302    411.146745                    
V  2  -7087.397508   -769.918947 -30775.067603      0.010183                    
P  3   9779.108906 -19284.746381  14770.291332    139.246376                    
V  3   4151.724599  19586.406872  22319.142559      0.050728                    
P  4 -24706.643657   4096.768982  -9556.137596     69.877789                    
V  4   9280.487639  -7680.284116 -27811.419173      0.111938                    
P  5 -12266.641218  10062.176666  21289.544965   -371.686258                    
V  5 -22130.743763 -15681.399650  -5189.040668     -0.023293                    
P  6  13730.910200 -13182.037825  18487.180925    430.464094                    
V  6   1537.251638  23493.131176  16020.773321     -0.128138                    
P  7 -11824.513182 -10538.990560  21408.064226    154.954876                    
V  7  24379.096964 -11585.837910   7499.747800      0.044373                    
P  8 -21760.111997  -2877.642757  15472.292321      3.337267                    
V  8  17807.529757  -7121.992298  23303.212729      0.003124                    
P  9 -12427.253813  17779.374913 -15889.797682    205.353347                    
V  9 -17766.997009   7219.382880  22708.679872      0.026708                    
P 10 -23166.594238  -6289.254625  11529.136153    -61.487048                    
V 10 -10672.276914 -10780.916586 -26268.832538     -0.014890                    
P 11   7446.046598 -21634.713824 -13678.458240   -331.406978                    
V 11  15275.366106  -8477.525579  22723.646308     -0.039315                    
P 12   5028.047645  18731.765611 -18252.014712    105.910514                    
V 12 -19242.429575 -12672.058271 -18135.903054      0.020327                    
P 13  -5585.621192 -21768.888608  13929.708828    161.501075                    
V 13   4810.302830 -17349.680804 -25049.505117     -0.027194                    
P 14  14042.633983   5367.482279 -21711.271837    218.000086                    
V 14  -4301.596148  27646.691574   3879.863222      0.005419                    
P 15  -4707.277316  25583.530675   4661.827937   -101.725557                    
V 15  -3192.806792  -6164.248095  30764.507363     -0.010286                    
P 16  12438.073794  -8787.223696  21789.274850   -250.594575                    
V 16  21854.029778  16819.436328  -5378.441704     -0.004519                    
P 17 -14632.885931  -4032.641326 -21618.574840     71.089638                    
V 17   3342.423535 -27680.571041   2635.226364     -0.036527                    
P 18  20459.031246  17015.340058   3134.159660    228.517759                    
V 18  -4850.418809    850.221799  30466.213771      0.018507                    
P 19   8628.109198 -24026.649570   6440.710085   -329.326517                    
V 19   1581.943575   8758.434464  30590.555221     -0.033625                    
P 20  -6717.727327 -19252.888283 -17226.838804     75.868395                    
V 20  19549.366780   9492.967305 -18338.878302      0.012401                    
P 21  16042.330298   8807.689528  19941.617190   -267.218734                    
V 21 -21348.465519  11340.158349  11940.984337     -0.023543                    
P 22  23598.608008   8098.413078  -9107.369213    152.972929                    
V 22   7734.249513   9614.675656  27893.517989      0.009547                    
P 23    153.690904 -26172.906423   3136.484252    135.888598                    
V 23   3543.460938  -3652.614893 -31607.232225     -0.038303                    
P 24  -8292.152156  17907.363309 -17768.663328      2.670954                    
V 24 -21021.973545   8399.737413  18285.100534     -0.006639                    
P 25  16138.414867  18832.290683  -9639.317450     55.432624                    
V 25 -11289.467886  -4993.716505 -28693.439419      0.021516                    
P 26 -12422.975003  18348.585982  13747.393977   -181.372631                    
V 26   1017.021144 -18722.177071  25135.141804      0.135305                    
P 28 -22680.439172 -12464.637145  -5861.101691    212.248922                    
V 28  -5230.505326  -6544.799327  30917.437987      0.036012                    
P 29   5932.944402  22694.840709  12546.799176    385.546608                    
V 29  -4106.055387  15439.453961 -26052.735066      0.039612                    
P 30  20766.744240  -1443.855608  16130.083038   -290.438699                    
V 30  17607.128250  11878.285141 -21168.544934      0.131388                    
P 31  25052.744554  -7305.659506  -5454.059381    291.262854                    
V 31  -5681.140953   4689.721405 -31023.254472      0.020736                    
P 32   3186.350691 -16413.175549 -20580.871368   -515.254507                    
V 32  20864.362912  16231.278354  -9132.743468     -0.034829                    
EOF
